[{"OBJECT_NAME":"STARLINK-31792","OBJECT_ID":"2024-118V","EPOCH":"2026-03-09T06:15:31.253760","MEAN_MOTION":15.30184207,"ECCENTRICITY":0.00011861,"INCLINATION":53.1621,"RA_OF_ASC_NODE":26.3239,"ARG_OF_PERICENTER":132.0273,"MEAN_ANOMALY":228.0828,"EPHEMERIS_TYPE":0,"CLASSIFICATION_TYPE":"U","NORAD_CAT_ID":60132,"ELEMENT_SET_NO":999,"REV_AT_EPOCH":9566,"BSTAR":-5.1265367e-5,"MEAN_MOTION_DOT":-1.876e-5,"MEAN_MOTION_DDOT":0},{"OBJECT_NAME":"TRANSPORTER-1 OBJECT M","OBJECT_ID":"2021-006M","EPOCH":"2026-03-09T22:05:37.843296","MEAN_MOTION":15.3227845,"ECCENTRICITY":0.00102759,"INCLINATION":97.2377,"RA_OF_ASC_NODE":116.7915,"ARG_OF_PERICENTER":187.5492,"MEAN_ANOMALY":172.5597,"EPHEMERIS_TYPE":0,"CLASSIFICATION_TYPE":"U","NORAD_CAT_ID":47424,"ELEMENT_SET_NO":999,"REV_AT_EPOCH":28439,"BSTAR":0.00023985652,"MEAN_MOTION_DOT":7.411e-5,"MEAN_MOTION_DDOT":0}]
